OBJECT_NAME,OBJECT_ID,EPOCH,MEAN_MOTION,ECCENTRICITY,INCLINATION,RA_OF_ASC_NODE,ARG_OF_PERICENTER,MEAN_ANOMALY,EPHEMERIS_TYPE,CLASSIFICATION_TYPE,NORAD_CAT_ID,ELEMENT_SET_NO,REV_AT_EPOCH,BSTAR,MEAN_MOTION_DOT,MEAN_MOTION_DDOT
COSMOS 2507 (RODNIK-S 13),2015-050A,2026-06-28T23:37:33.242592,12.42926663,.00096767,82.4928,72.3255,331.2086,28.8459,0,U,40920,999,48832,-.21358714E-3,-.2E-6,0
COSMOS 2508 (RODNIK-S 14),2015-050B,2026-06-28T22:32:56.850432,12.42914098,.00146908,82.4880,70.8541,2.3532,357.7614,0,U,40921,999,48830,-.36962446E-3,-.41E-6,0
COSMOS 2509 (RODNIK-S 15),2015-050C,2026-06-28T23:02:39.158016,12.42883658,.00153481,82.4888,70.9447,18.8075,341.3569,0,U,40922,999,48834,-.17749549E-3,-.15E-6,0
LINGQIAO VIDEO A,2015-057B,2026-06-28T22:37:59.558880,14.77407014,.00154174,97.6618,174.1649,228.2691,131.7202,0,U,40959,999,57714,.87733331E-4,.577E-5,0
LINGQIAO VIDEO B,2015-057C,2026-06-28T23:40:42.278016,14.77512435,.00155861,97.6583,175.3670,228.0649,131.9235,0,U,40960,999,57719,.20964362E-4,.101E-5,0
JILIN-1,2015-057D,2026-06-28T23:52:36.146784,14.78178223,.0015803,97.6509,178.7754,220.9963,139.0062,0,U,40961,999,57735,.1118385E-3,.763E-5,0
FOX-1A (AO-85),2015-058D,2026-06-28T16:30:43.685568,14.91015719,.01311551,64.7745,243.2418,52.1162,309.1726,0,U,40967,999,11528,.17487412E-3,.1863E-4,0
SINOD-D 1,2015-058E,2026-06-28T13:50:40.363584,14.95968824,.01198131,64.7737,223.2432,48.5852,312.5483,0,U,40968,999,11836,.23786569E-3,.2906E-4,0
ELEKTRO-L 2,2015-074A,2026-06-27T22:42:11.116800,1.00271140,.000068,6.7214,70.3918,283.3260,248.3287,0,U,41105,999,3861,0,-.113E-5,0
DAMPE,2015-078A,2026-06-28T23:59:51.921600,15.30814935,.00132184,97.4555,185.5249,40.6166,319.6059,0,U,41173,999,58635,.41998367E-4,.1175E-4,0
ORBCOMM FM110,2015-081D,2026-06-28T19:33:30.829824,14.58897084,.00027103,47.0029,306.4636,145.1556,214.9508,0,U,41182,999,55932,.16888E-3,.628E-5,0
ORBCOMM FM112,2015-081F,2026-06-28T18:50:31.356960,14.58915776,.00041276,46.9973,215.4032,263.4992,96.5424,0,U,41184,999,56064,.10143109E-3,.308E-5,0
ORBCOMM FM113,2015-081G,2026-06-28T11:42:55.607904,14.58867726,.00026128,46.9990,217.1892,263.3683,96.6906,0,U,41185,999,56058,.94311828E-4,.275E-5,0
ORBCOMM FM108,2015-081J,2026-06-28T20:40:19.021728,14.58887665,.00031995,47.0044,127.0012,264.7955,95.2566,0,U,41187,999,56178,.14720126E-3,.525E-5,0
ORBCOMM FM117,2015-081K,2026-06-28T19:50:46.462560,14.58874434,.00037001,47.0003,125.7943,268.5112,91.5350,0,U,41188,999,56182,.11192643E-3,.358E-5,0
ORBCOMM FM116,2015-081L,2026-06-28T12:47:54.787200,14.58894970,.00007827,47.0008,216.9738,170.6855,189.4045,0,U,41189,999,56059,.1083952E-3,.342E-5,0
HORYU-4,2016-012D,2026-06-28T19:58:52.188672,16.13056645,.00097083,30.9816,352.6613,339.1156,20.9113,0,U,41340,999,57268,.11400363E-2,.1386511E-1,.13186712E-2
ZIYUAN 3-02 (ZY 3-02),2016-033A,2026-06-28T23:07:56.142336,15.21288013,.00125988,97.3839,255.5115,245.0034,114.9894,0,U,41556,999,55977,.22973733E-3,.5078E-4,0
CARTOSAT-2C,2016-040A,2026-06-28T23:34:08.225760,15.19280060,.00104256,97.4484,239.7973,95.9374,264.3050,0,U,41599,999,55550,.19490638E-3,.4048E-4,0
LAPAN-A3,2016-040E,2026-06-28T22:32:44.104704,15.33179151,.00094177,97.1487,175.6992,344.1268,15.9678,0,U,41603,999,55661,.10028999E-3,.3143E-4,0
GAOFEN-3,2016-049A,2026-06-29T00:24:28.094112,14.42216335,.00016143,98.4008,187.6242,97.6543,262.4830,0,U,41727,999,52035,-.45300603E-4,-.193E-5,0
CAS-2T & KS-1Q,2016-066G,2026-06-28T22:41:26.408256,14.44731270,.03428741,98.3820,255.5473,93.9278,270.1178,0,U,41847,999,50649,.22585495E-3,.1566E-4,0
YUNHAI-1 01,2016-068A,2026-06-28T23:18:16.428672,14.32430174,.00054741,98.5841,190.8662,27.3476,332.7995,0,U,41857,999,50351,.39770238E-4,.64E-6,0
RESOURCESAT-2A,2016-074A,2026-06-28T23:10:09.411744,14.21604642,.00031386,98.7532,253.3734,61.6381,298.5113,0,U,41877,999,49597,.11987194E-3,.219E-5,0
