COSMOS 2507 (RODNIK-S *)
1 40920U 15050A   26179.98441253 -.00000020  00000+0 -21359-3 0  9993
2 40920  82.4928  72.3255 0009676 331.2086  28.8459 12.42926663488327
COSMOS 2508 (RODNIK-S *)
1 40921U 15050B   26179.93954688 -.00000041  00000+0 -36962-3 0  9999
2 40921  82.4880  70.8541 0014690   2.3532 357.7614 12.42914098488304
COSMOS 2509 (RODNIK-S *)
1 40922U 15050C   26179.96017544 -.00000015  00000+0 -17750-3 0  9999
2 40922  82.4888  70.9447 0015348  18.8075 341.3569 12.42883658488343
LINGQIAO VIDEO A        
1 40959U 15057B   26179.94305045  .00000577  00000+0  87733-4 0  9990
2 40959  97.6618 174.1649 0015417 228.2691 131.7202 14.77407014577141
LINGQIAO VIDEO B        
1 40960U 15057C   26179.98660044  .00000101  00000+0  20964-4 0  9995
2 40960  97.6583 175.3670 0015586 228.0649 131.9235 14.77512435577196
JILIN-1                 
1 40961U 15057D   26179.99486281  .00000763  00000+0  11184-3 0  9993
2 40961  97.6509 178.7754 0015803 220.9963 139.0062 14.78178223577356
FOX-1A (AO-85)          
1 40967U 15058D   26179.68800562  .00001863  00000+0  17487-3 0  9992
2 40967  64.7745 243.2418 0131155  52.1162 309.1726 14.91015719115281
SINOD-D 1               
1 40968U 15058E   26179.57685606  .00002906  00000+0  23787-3 0  9990
2 40968  64.7737 223.2432 0119813  48.5852 312.5483 14.95968824118367
ELEKTRO-L 2             
1 41105U 15074A   26178.94596200 -.00000113  00000+0  00000+0 0  9991
2 41105   6.7214  70.3918 0000680 283.3260 248.3287  1.00271140 38617
DAMPE                   
1 41173U 15078A   26179.99990650  .00001175  00000+0  41998-4 0  9997
2 41173  97.4555 185.5249 0013218  40.6166 319.6059 15.30814935586354
ORBCOMM FM110           
1 41182U 15081D   26179.81494016  .00000628  00000+0  16888-3 0  9998
2 41182  47.0029 306.4636 0002710 145.1556 214.9508 14.58897084559322
ORBCOMM FM112           
1 41184U 15081F   26179.78508515  .00000308  00000+0  10143-3 0  9999
2 41184  46.9973 215.4032 0004127 263.4992  96.5424 14.58915776560648
ORBCOMM FM113           
1 41185U 15081G   26179.48814361  .00000275  00000+0  94312-4 0  9990
2 41185  46.9990 217.1892 0002612 263.3683  96.6906 14.58867726560584
ORBCOMM FM108           
1 41187U 15081J   26179.86133127  .00000525  00000+0  14720-3 0  9990
2 41187  47.0044 127.0012 0003199 264.7955  95.2566 14.58887665561783
ORBCOMM FM117           
1 41188U 15081K   26179.82692665  .00000358  00000+0  11193-3 0  9999
2 41188  47.0003 125.7943 0003700 268.5112  91.5350 14.58874434561827
ORBCOMM FM116           
1 41189U 15081L   26179.53327300  .00000342  00000+0  10840-3 0  9990
2 41189  47.0008 216.9738 0000782 170.6855 189.4045 14.58894970560590
HORYU-4                 
1 41340U 16012D   26179.83254848  .01386511  13187-2  11400-2 0  9994
2 41340  30.9816 352.6613 0009708 339.1156  20.9113 16.13056645572680
ZIYUAN 3-02 (ZY 3-02)   
1 41556U 16033A   26179.96384424  .00005078  00000+0  22974-3 0  9995
2 41556  97.3839 255.5115 0012598 245.0034 114.9894 15.21288013559779
CARTOSAT-2C             
1 41599U 16040A   26179.98203965  .00004048  00000+0  19491-3 0  9998
2 41599  97.4484 239.7973 0010425  95.9374 264.3050 15.19280060555507
LAPAN-A3                
1 41603U 16040E   26179.93939936  .00003143  00000+0  10029-3 0  9996
2 41603  97.1487 175.6992 0009417 344.1268  15.9678 15.33179151556615
GAOFEN-3                
1 41727U 16049A   26180.01699183 -.00000193  00000+0 -45301-4 0  9996
2 41727  98.4008 187.6242 0001614  97.6543 262.4830 14.42216335520359
CAS-2T & KS-1Q          
1 41847U 16066G   26179.94544454  .00001566  00000+0  22585-3 0  9999
2 41847  98.3820 255.5473 0342874  93.9278 270.1178 14.44731270506496
YUNHAI-1 01             
1 41857U 16068A   26179.97102348  .00000064  00000+0  39770-4 0  9994
2 41857  98.5841 190.8662 0005474  27.3476 332.7995 14.32430174503514
RESOURCESAT-2A          
1 41877U 16074A   26179.96538671  .00000219  00000+0  11987-3 0  9995
2 41877  98.7532 253.3734 0003138  61.6381 298.5113 14.21604642495973
